$$SOE
2461295.500000000, A.D. 2026-Sep-12 00:00:00.0000, -2.026054181796623E+08, 3.395186504324988E+08, 3.916550287811054E+07,
2461302.500000000, A.D. 2026-Sep-19 00:00:00.0000, -2.114981654048486E+08, 3.354975921528714E+08, 3.838058578232700E+07,
2461309.500000000, A.D. 2026-Sep-26 00:00:00.0000, -2.202288011935706E+08, 3.312192142581348E+08, 3.756619483072573E+07,
2461316.500000000, A.D. 2026-Oct-03 00:00:00.0000, -2.287919835665686E+08, 3.266888403982091E+08, 3.672318669905992E+07,
2461323.500000000, A.D. 2026-Oct-10 00:00:00.0000, -2.371824993399886E+08, 3.219117822977298E+08, 3.585241290978996E+07,
2461330.500000000, A.D. 2026-Oct-17 00:00:00.0000, -2.453952561478040E+08, 3.168933413403735E+08, 3.495472026700364E+07,
2461337.500000000, A.D. 2026-Oct-24 00:00:00.0000, -2.534252748856644E+08, 3.116388103356259E+08, 3.403095130831756E+07,
2461344.500000000, A.D. 2026-Oct-31 00:00:00.0000, -2.612676824595312E+08, 3.061534753833396E+08, 3.308194475749236E+07,
2461351.500000000, A.D. 2026-Nov-07 00:00:00.0000, -2.689177044831738E+08, 3.004426178944501E+08, 3.210853595130986E+07,
2461358.500000000, A.D. 2026-Nov-14 00:00:00.0000, -2.763706577083707E+08, 2.945115176416342E+08, 3.111155729376072E+07,
2461365.500000000, A.D. 2026-Nov-21 00:00:00.0000, -2.836219439869905E+08, 2.883654575115491E+08, 3.009183895878397E+07,
2461372.500000000, A.D. 2026-Nov-28 00:00:00.0000, -2.906670467504236E+08, 2.820097269445622E+08, 2.905020968684074E+07,
2461379.500000000, A.D. 2026-Dec-05 00:00:00.0000, -2.975015263709175E+08, 2.754496233975597E+08, 2.798749728925677E+07,
2461386.500000000, A.D. 2026-Dec-12 00:00:00.0000, -3.041210142291371E+08, 2.686904549318100E+08, 2.690452909936677E+07,
2461393.500000000, A.D. 2026-Dec-19 00:00:00.0000, -3.105212073688622E+08, 2.617375439307106E+08, 2.580213254430899E+07,
2461400.500000000, A.D. 2026-Dec-26 00:00:00.0000, -3.166978638716774E+08, 2.545962310802343E+08, 2.468113577965614E+07,
2461407.500000000, A.D. 2027-Jan-02 00:00:00.0000, -3.226467986647649E+08, 2.472718794202282E+08, 2.354236834590870E+07,
2461414.500000000, A.D. 2027-Jan-09 00:00:00.0000, -3.283638796350533E+08, 2.397698784844445E+08, 2.238666183776534E+07,
2461421.500000000, A.D. 2027-Jan-16 00:00:00.0000, -3.338450240078310E+08, 2.320956485351849E+08, 2.121485058395287E+07,
2461428.500000000, A.D. 2027-Jan-23 00:00:00.0000, -3.390861949421127E+08, 2.242546448512732E+08, 2.002777233091861E+07,
2461435.500000000, A.D. 2027-Jan-30 00:00:00.0000, -3.440833981573332E+08, 2.162523620236194E+08, 1.882626891028927E+07,
2461442.500000000, A.D. 2027-Feb-06 00:00:00.0000, -3.488326781700221E+08, 2.080943386043859E+08, 1.761118687982774E+07,
2461449.500000000, A.D. 2027-Feb-13 00:00:00.0000, -3.533301146034163E+08, 1.997861633371739E+08, 1.638337828033897E+07,
2461456.500000000, A.D. 2027-Feb-20 00:00:00.0000, -3.575718209369941E+08, 1.913334821856297E+08, 1.514370166093987E+07,
2461463.500000000, A.D. 2027-Feb-27 00:00:00.0000, -3.615539443019770E+08, 1.827420029561945E+08, 1.389302298224159E+07,
2461470.500000000, A.D. 2027-Mar-06 00:00:00.0000, -3.652726633029965E+08, 1.740174994432579E+08, 1.263221627825734E+07,
2461477.500000000, A.D. 2027-Mar-13 00:00:00.0000, -3.687241854698628E+08, 1.651658171482305E+08, 1.136216439205207E+07,
2461484.500000000, A.D. 2027-Mar-20 00:00:00.0000, -3.719047454803871E+08, 1.561928797441533E+08, 1.008375982138463E+07,
2461491.500000000, A.D. 2027-Mar-27 00:00:00.0000, -3.748106039648872E+08, 1.471046957468912E+08, 8.797905612020500E+06,
2461498.500000000, A.D. 2027-Apr-03 00:00:00.0000, -3.774380467025132E+08, 1.379073653558477E+08, 7.505516277354740E+06,
2461505.500000000, A.D. 2027-Apr-10 00:00:00.0000, -3.797833841628858E+08, 1.286070874984848E+08, 6.207518741703771E+06,
2461512.500000000, A.D. 2027-Apr-17 00:00:00.0000, -3.818429513875788E+08, 1.192101670761850E+08, 4.904853305055432E+06,
2461519.500000000, A.D. 2027-Apr-24 00:00:00.0000, -3.836131081507319E+08, 1.097230223614221E+08, 3.598474617835343E+06,
2461526.500000000, A.D. 2027-May-01 00:00:00.0000, -3.850902391197684E+08, 1.001521925861808E+08, 2.289352641348913E+06,
2461533.500000000, A.D. 2027-May-08 00:00:00.0000, -3.862707537317595E+08, 9.050434648179559E+07, 9.784736277217381E+05,
2461540.500000000, A.D. 2027-May-15 00:00:00.0000, -3.871510873087996E+08, 8.078629273464057E+07, -3.331586646928750E+05,
2461547.500000000, A.D. 2027-May-22 00:00:00.0000, -3.877277050087628E+08, 7.100498977743158E+07, -1.644521588325072E+06,
2461554.500000000, A.D. 2027-May-29 00:00:00.0000, -3.879971052912820E+08, 6.116755346173365E+07, -2.954572483130891E+06,
2461561.500000000, A.D. 2027-Jun-05 00:00:00.0000, -3.879558220481514E+08, 5.128126575606257E+07, -4.262247637433633E+06,
2461568.500000000, A.D. 2027-Jun-12 00:00:00.0000, -3.876004274447411E+08, 4.135358490956520E+07, -5.566461112907063E+06,
2461575.500000000, A.D. 2027-Jun-19 00:00:00.0000, -3.869275358519433E+08, 3.139215615448917E+07, -6.866103479876578E+06,
2461582.500000000, A.D. 2027-Jun-26 00:00:00.0000, -3.859338086425278E+08, 2.140482269562977E+07, -8.160040510249765E+06,
2461589.500000000, A.D. 2027-Jul-03 00:00:00.0000, -3.846159597763597E+08, 1.139963700306945E+07, -9.447111839956732E+06,
2461596.500000000, A.D. 2027-Jul-10 00:00:00.0000, -3.829707621993193E+08, 1.384872422257370E+06, -1.072612960436271E+07,
2461603.500000000, A.D. 2027-Jul-17 00:00:00.0000, -3.809950550875407E+08, -8.630964934895147E+06, -1.199587705447255E+07,
2461610.500000000, A.D. 2027-Jul-24 00:00:00.0000, -3.786857518552306E+08, -1.863912408124744E+07, -1.325510717533211E+07,
2461617.500000000, A.D. 2027-Jul-31 00:00:00.0000, -3.760398485961934E+08, -2.863059659672849E+07, -1.450254132773192E+07,
2461624.500000000, A.D. 2027-Aug-07 00:00:00.0000, -3.730544332482947E+08, -3.859610247907706E+07, -1.573686780412618E+07,
2461631.500000000, A.D. 2027-Aug-14 00:00:00.0000, -3.697266978790860E+08, -4.852607467216419E+07, -1.695674011308412E+07,
2461638.500000000, A.D. 2027-Aug-21 00:00:00.0000, -3.660539535837371E+08, -5.841064565896841E+07, -1.816077533034412E+07,
2461645.500000000, A.D. 2027-Aug-28 00:00:00.0000, -3.620336446836790E+08, -6.823963494357736E+07, -1.934755274061755E+07,
2461652.500000000, A.D. 2027-Sep-04 00:00:00.0000, -3.576633635308498E+08, -7.800253495441589E+07, -2.051561246590917E+07,
2461659.500000000, A.D. 2027-Sep-11 00:00:00.0000, -3.529408674439256E+08, -8.768849607700211E+07, -2.166345401666507E+07,
2461666.500000000, A.D. 2027-Sep-18 00:00:00.0000, -3.478640977858941E+08, -9.728631152635932E+07, -2.278953484352892E+07,
2461673.500000000, A.D. 2027-Sep-25 00:00:00.0000, -3.424312011051815E+08, -1.067844022101046E+08, -2.389226893104516E+07,
2461680.500000000, A.D. 2027-Oct-02 00:00:00.0000, -3.366405524233022E+08, -1.161708016475031E+08, -2.497002545377339E+07,
2461687.500000000, A.D. 2027-Oct-09 00:00:00.0000, -3.304907808162784E+08, -1.254331410667918E+08, -2.602112751657020E+07,
2461694.500000000, A.D. 2027-Oct-16 00:00:00.0000, -3.239807974122781E+08, -1.345586348786673E+08, -2.704385101346135E+07,
2461701.500000000, A.D. 2027-Oct-23 00:00:00.0000, -3.171098257449458E+08, -1.435340666985963E+08, -2.803642365827190E+07,
2461708.500000000, A.D. 2027-Oct-30 00:00:00.0000, -3.098774342944213E+08, -1.523457755007798E+08, -2.899702420431753E+07,
2461715.500000000, A.D. 2027-Nov-06 00:00:00.0000, -3.022835725879698E+08, -1.609796410012966E+08, -2.992378169085842E+07,
2461722.500000000, A.D. 2027-Nov-13 00:00:00.0000, -2.943286130547726E+08, -1.694210706135243E+08, -3.081477474541184E+07,
2461729.500000000, A.D. 2027-Nov-20 00:00:00.0000, -2.860133959449411E+08, -1.776549904763052E+08, -3.166803143463448E+07,
2461736.500000000, A.D. 2027-Nov-27 00:00:00.0000, -2.773392759053162E+08, -1.856658379537938E+08, -3.248152962415414E+07,
2461743.500000000, A.D. 2027-Dec-04 00:00:00.0000, -2.683081724337493E+08, -1.934375551091966E+08, -3.325319764746410E+07,
2461750.500000000, A.D. 2027-Dec-11 00:00:00.0000, -2.589226249417597E+08, -2.009535845946209E+08, -3.398091537984556E+07,
2461757.500000000, A.D. 2027-Dec-18 00:00:00.0000, -2.491858523066400E+08, -2.081968688455797E+08, -3.466251584699032E+07,
2461764.500000000, A.D. 2027-Dec-25 00:00:00.0000, -2.391018168869273E+08, -2.151498532073074E+08, -3.529578746893373E+07,
2461771.500000000, A.D. 2028-Jan-01 00:00:00.0000, -2.286752930417499E+08, -2.217944936809163E+08, -3.587847703751145E+07,
$$EOE